ZHONGXING-11            
1 39157U 13020A   26032.59280848 -.00000300  00000+0  00000+0 0  9990
2 39157   0.0430 282.5612 0003117  17.4475 143.0744  1.00273121 46538
EUTELSAT 7B             
1 39163U 13022A   26032.90947442  .00000038  00000+0  00000+0 0  9991
2 39163   0.0696 345.5025 0006104 353.7759 127.2023  1.00270886 46592
WGS F5 (USA 243)        
1 39168U 13024A   26032.76554244 -.00000294  00000+0  00000+0 0  9991
2 39168   0.0143  91.6986 0000258 221.0498  42.2902  1.00271356 45819
SES-6                   
1 39172U 13026A   26032.91053657  .00000000  00000+0  00000+0 0  9991
2 39172   0.0160 325.7858 0002523 351.0092 102.6126  1.00267454 46367
IRNSS-1A                
1 39199U 13034A   26016.19955806  .00000064  00000+0  00000+0 0  9998
2 39199  35.3835  66.0531 0021026 207.1773 329.4329  1.00280803 45844
MUOS-2                  
1 39206U 13036A   26032.88132974 -.00000023  00000+0  00000+0 0  9992
2 39206   4.7248  45.2591 0051854 182.4783  33.5769  1.00272386 45831
ALPHASAT                
1 39215U 13038A   26032.35947376  .00000125  00000+0  00000+0 0  9998
2 39215   2.9752   2.4723 0002067 309.5532 333.8069  1.00270187 42652
INSAT-3D                
1 39216U 13038B   26032.94416344 -.00000350  00000+0  00000+0 0  9991
2 39216   1.5770  84.3556 0001932 197.4187 319.7381  1.00268728 45720
WGS F6 (USA 244)        
1 39222U 13041A   26032.78308484  .00000080  00000+0  00000+0 0  9998
2 39222   0.0144  87.2636 0000381 192.1610 359.2335  1.00268522 44704
ES'HAIL 1               
1 39233U 13044A   26032.88725214  .00000133  00000+0  00000+0 0  9997
2 39233   0.0506 357.5804 0002184 308.1796 171.2095  1.00269907 45271
GSAT-7                  
1 39234U 13044B   26032.93324337 -.00000087  00000+0  00000+0 0  9994
2 39234   0.0164  93.1705 0007553 191.0459 257.8485  1.00271513 43903
AMOS-4                  
1 39237U 13045A   26032.93142336 -.00000002  00000+0  00000+0 0  9992
2 39237   0.0127  99.8954 0002911 224.1192 208.4119  1.00271117 45604
AEHF-3 (USA 246)        
1 39256U 13050A   26032.67999197  .00000018  00000+0  00000+0 0  9991
2 39256   4.9578  68.4439 0093560 186.7506 357.2313  1.00273668 44296
ASTRA 2E                
1 39285U 13056A   26032.92422998  .00000140  00000+0  00000+0 0  9993
2 39285   0.0573  15.7933 0002210 290.1582 187.3647  1.00270403 45062
FM-6                    
1 39360U 13058A   26032.68146531 -.00000026  00000+0  00000+0 0  9992
2 39360   0.0261  95.8867 0003115  82.8323  82.2955  1.00269461 44717
RADUGA-1M 3             
1 39375U 13062A   26032.78278919  .00000142  00000+0  00000+0 0  9998
2 39375   5.6196  74.0688 0000402   1.9018  12.7718  1.00271320 44756
SES-8                   
1 39460U 13071A   26032.93740339  .00000000  00000+0  00000+0 0  9993
2 39460   0.0117 256.5795 0001350  87.7430 220.3068  1.00269729 43082
