[{"OBJECT_NAME":"ZHONGXING-11","OBJECT_ID":"2013-020A","EPOCH":"2026-02-01T14:13:38.652672","MEAN_MOTION":1.00273121,"ECCENTRICITY":0.00031171,"INCLINATION":0.043,"RA_OF_ASC_NODE":282.5612,"ARG_OF_PERICENTER":17.4475,"MEAN_ANOMALY":143.0744,"EPHEMERIS_TYPE":0,"CLASSIFICATION_TYPE":"U","NORAD_CAT_ID":39157,"ELEMENT_SET_NO":999,"REV_AT_EPOCH":4653,"BSTAR":0,"MEAN_MOTION_DOT":-3.0e-6,"MEAN_MOTION_DDOT":0},{"OBJECT_NAME":"EUTELSAT 7B","OBJECT_ID":"2013-022A","EPOCH":"2026-02-01T21:49:38.589888","MEAN_MOTION":1.00270886,"ECCENTRICITY":0.00061049,"INCLINATION":0.0696,"RA_OF_ASC_NODE":345.5025,"ARG_OF_PERICENTER":353.7759,"MEAN_ANOMALY":127.2023,"EPHEMERIS_TYPE":0,"CLASSIFICATION_TYPE":"U","NORAD_CAT_ID":39163,"ELEMENT_SET_NO":999,"REV_AT_EPOCH":4659,"BSTAR":0,"MEAN_MOTION_DOT":3.8e-7,"MEAN_MOTION_DDOT":0},{"OBJECT_NAME":"WGS F5 (USA 243)","OBJECT_ID":"2013-024A","EPOCH":"2026-02-01T18:22:22.866816","MEAN_MOTION":1.00271356,"ECCENTRICITY":2.587e-5,"INCLINATION":0.0143,"RA_OF_ASC_NODE":91.6986,"ARG_OF_PERICENTER":221.0498,"MEAN_ANOMALY":42.2902,"EPHEMERIS_TYPE":0,"CLASSIFICATION_TYPE":"U","NORAD_CAT_ID":39168,"ELEMENT_SET_NO":999,"REV_AT_EPOCH":4581,"BSTAR":0,"MEAN_MOTION_DOT":-2.94e-6,"MEAN_MOTION_DDOT":0},{"OBJECT_NAME":"SES-6","OBJECT_ID":"2013-026A","EPOCH":"2026-02-01T21:51:10.359648","MEAN_MOTION":1.00267454,"ECCENTRICITY":0.00025232,"INCLINATION":0.016,"RA_OF_ASC_NODE":325.7858,"ARG_OF_PERICENTER":351.0092,"MEAN_ANOMALY":102.6126,"EPHEMERIS_TYPE":0,"CLASSIFICATION_TYPE":"U","NORAD_CAT_ID":39172,"ELEMENT_SET_NO":999,"REV_AT_EPOCH":4636,"BSTAR":0,"MEAN_MOTION_DOT":0,"MEAN_MOTION_DDOT":0},{"OBJECT_NAME":"IRNSS-1A","OBJECT_ID":"2013-034A","EPOCH":"2026-01-16T04:47:21.816384","MEAN_MOTION":1.00280803,"ECCENTRICITY":0.00210269,"INCLINATION":35.3835,"RA_OF_ASC_NODE":66.0531,"ARG_OF_PERICENTER":207.1773,"MEAN_ANOMALY":329.4329,"EPHEMERIS_TYPE":0,"CLASSIFICATION_TYPE":"U","NORAD_CAT_ID":39199,"ELEMENT_SET_NO":999,"REV_AT_EPOCH":4584,"BSTAR":0,"MEAN_MOTION_DOT":6.4e-7,"MEAN_MOTION_DDOT":0},{"OBJECT_NAME":"MUOS-2","OBJECT_ID":"2013-036A","EPOCH":"2026-02-01T21:09:06.889536","MEAN_MOTION":1.00272386,"ECCENTRICITY":0.00518546,"INCLINATION":4.7248,"RA_OF_ASC_NODE":45.2591,"ARG_OF_PERICENTER":182.4783,"MEAN_ANOMALY":33.5769,"EPHEMERIS_TYPE":0,"CLASSIFICATION_TYPE":"U","NORAD_CAT_ID":39206,"ELEMENT_SET_NO":999,"REV_AT_EPOCH":4583,"BSTAR":0,"MEAN_MOTION_DOT":-2.3e-7,"MEAN_MOTION_DDOT":0},{"OBJECT_NAME":"ALPHASAT","OBJECT_ID":"2013-038A","EPOCH":"2026-02-01T08:37:38.532864","MEAN_MOTION":1.00270187,"ECCENTRICITY":0.00020672,"INCLINATION":2.9752,"RA_OF_ASC_NODE":2.4723,"ARG_OF_PERICENTER":309.5532,"MEAN_ANOMALY":333.8069,"EPHEMERIS_TYPE":0,"CLASSIFICATION_TYPE":"U","NORAD_CAT_ID":39215,"ELEMENT_SET_NO":999,"REV_AT_EPOCH":4265,"BSTAR":0,"MEAN_MOTION_DOT":1.25e-6,"MEAN_MOTION_DDOT":0},{"OBJECT_NAME":"INSAT-3D","OBJECT_ID":"2013-038B","EPOCH":"2026-02-01T22:39:35.721216","MEAN_MOTION":1.00268728,"ECCENTRICITY":0.00019327,"INCLINATION":1.577,"RA_OF_ASC_NODE":84.3556,"ARG_OF_PERICENTER":197.4187,"MEAN_ANOMALY":319.7381,"EPHEMERIS_TYPE":0,"CLASSIFICATION_TYPE":"U","NORAD_CAT_ID":39216,"ELEMENT_SET_NO":999,"REV_AT_EPOCH":4572,"BSTAR":0,"MEAN_MOTION_DOT":-3.5e-6,"MEAN_MOTION_DDOT":0},{"OBJECT_NAME":"WGS F6 (USA 244)","OBJECT_ID":"2013-041A","EPOCH":"2026-02-01T18:47:38.530176","MEAN_MOTION":1.00268522,"ECCENTRICITY":3.811e-5,"INCLINATION":0.0144,"RA_OF_ASC_NODE":87.2636,"ARG_OF_PERICENTER":192.161,"MEAN_ANOMALY":359.2335,"EPHEMERIS_TYPE":0,"CLASSIFICATION_TYPE":"U","NORAD_CAT_ID":39222,"ELEMENT_SET_NO":999,"REV_AT_EPOCH":4470,"BSTAR":0,"MEAN_MOTION_DOT":8.0e-7,"MEAN_MOTION_DDOT":0},{"OBJECT_NAME":"ES'HAIL 1","OBJECT_ID":"2013-044A","EPOCH":"2026-02-01T21:17:38.584896","MEAN_MOTION":1.00269907,"ECCENTRICITY":0.00021843,"INCLINATION":0.0506,"RA_OF_ASC_NODE":357.5804,"ARG_OF_PERICENTER":308.1796,"MEAN_ANOMALY":171.2095,"EPHEMERIS_TYPE":0,"CLASSIFICATION_TYPE":"U","NORAD_CAT_ID":39233,"ELEMENT_SET_NO":999,"REV_AT_EPOCH":4527,"BSTAR":0,"MEAN_MOTION_DOT":1.33e-6,"MEAN_MOTION_DDOT":0},{"OBJECT_NAME":"GSAT-7","OBJECT_ID":"2013-044B","EPOCH":"2026-02-01T22:23:52.227168","MEAN_MOTION":1.00271513,"ECCENTRICITY":0.00075531,"INCLINATION":0.0164,"RA_OF_ASC_NODE":93.1705,"ARG_OF_PERICENTER":191.0459,"MEAN_ANOMALY":257.8485,"EPHEMERIS_TYPE":0,"CLASSIFICATION_TYPE":"U","NORAD_CAT_ID":39234,"ELEMENT_SET_NO":999,"REV_AT_EPOCH":4390,"BSTAR":0,"MEAN_MOTION_DOT":-8.7e-7,"MEAN_MOTION_DDOT":0},{"OBJECT_NAME":"AMOS-4","OBJECT_ID":"2013-045A","EPOCH":"2026-02-01T22:21:14.978304","MEAN_MOTION":1.00271117,"ECCENTRICITY":0.00029115,"INCLINATION":0.0127,"RA_OF_ASC_NODE":99.8954,"ARG_OF_PERICENTER":224.1192,"MEAN_ANOMALY":208.4119,"EPHEMERIS_TYPE":0,"CLASSIFICATION_TYPE":"U","NORAD_CAT_ID":39237,"ELEMENT_SET_NO":999,"REV_AT_EPOCH":4560,"BSTAR":0,"MEAN_MOTION_DOT":-2.0e-8,"MEAN_MOTION_DDOT":0},{"OBJECT_NAME":"AEHF-3 (USA 246)","OBJECT_ID":"2013-050A","EPOCH":"2026-02-01T16:19:11.306208","MEAN_MOTION":1.00273668,"ECCENTRICITY":0.00935608,"INCLINATION":4.9578,"RA_OF_ASC_NODE":68.4439,"ARG_OF_PERICENTER":186.7506,"MEAN_ANOMALY":357.2313,"EPHEMERIS_TYPE":0,"CLASSIFICATION_TYPE":"U","NORAD_CAT_ID":39256,"ELEMENT_SET_NO":999,"REV_AT_EPOCH":4429,"BSTAR":0,"MEAN_MOTION_DOT":1.8e-7,"MEAN_MOTION_DDOT":0},{"OBJECT_NAME":"ASTRA 2E","OBJECT_ID":"2013-056A","EPOCH":"2026-02-01T22:10:53.470272","MEAN_MOTION":1.00270403,"ECCENTRICITY":0.000221,"INCLINATION":0.0573,"RA_OF_ASC_NODE":15.7933,"ARG_OF_PERICENTER":290.1582,"MEAN_ANOMALY":187.3647,"EPHEMERIS_TYPE":0,"CLASSIFICATION_TYPE":"U","NORAD_CAT_ID":39285,"ELEMENT_SET_NO":999,"REV_AT_EPOCH":4506,"BSTAR":0,"MEAN_MOTION_DOT":1.4e-6,"MEAN_MOTION_DDOT":0},{"OBJECT_NAME":"FM-6","OBJECT_ID":"2013-058A","EPOCH":"2026-02-01T16:21:18.602784","MEAN_MOTION":1.00269461,"ECCENTRICITY":0.00031151,"INCLINATION":0.0261,"RA_OF_ASC_NODE":95.8867,"ARG_OF_PERICENTER":82.8323,"MEAN_ANOMALY":82.2955,"EPHEMERIS_TYPE":0,"CLASSIFICATION_TYPE":"U","NORAD_CAT_ID":39360,"ELEMENT_SET_NO":999,"REV_AT_EPOCH":4471,"BSTAR":0,"MEAN_MOTION_DOT":-2.6e-7,"MEAN_MOTION_DDOT":0},{"OBJECT_NAME":"RADUGA-1M 3","OBJECT_ID":"2013-062A","EPOCH":"2026-02-01T18:47:12.986016","MEAN_MOTION":1.0027132,"ECCENTRICITY":4.023e-5,"INCLINATION":5.6196,"RA_OF_ASC_NODE":74.0688,"ARG_OF_PERICENTER":1.9018,"MEAN_ANOMALY":12.7718,"EPHEMERIS_TYPE":0,"CLASSIFICATION_TYPE":"U","NORAD_CAT_ID":39375,"ELEMENT_SET_NO":999,"REV_AT_EPOCH":4475,"BSTAR":0,"MEAN_MOTION_DOT":1.42e-6,"MEAN_MOTION_DDOT":0},{"OBJECT_NAME":"SES-8","OBJECT_ID":"2013-071A","EPOCH":"2026-02-01T22:29:51.652896","MEAN_MOTION":1.00269729,"ECCENTRICITY":0.00013507,"INCLINATION":0.0117,"RA_OF_ASC_NODE":256.5795,"ARG_OF_PERICENTER":87.743,"MEAN_ANOMALY":220.3068,"EPHEMERIS_TYPE":0,"CLASSIFICATION_TYPE":"U","NORAD_CAT_ID":39460,"ELEMENT_SET_NO":999,"REV_AT_EPOCH":4308,"BSTAR":0,"MEAN_MOTION_DOT":0,"MEAN_MOTION_DDOT":0}]
